[{"OBJECT_NAME":"STARLINK-5363","OBJECT_ID":"2023-015BA","EPOCH":"2026-03-09T22:00:01.999584","MEAN_MOTION":15.07334825,"ECCENTRICITY":0.00022891,"INCLINATION":43.0004,"RA_OF_ASC_NODE":337.3819,"ARG_OF_PERICENTER":248.6523,"MEAN_ANOMALY":64.4241,"EPHEMERIS_TYPE":0,"CLASSIFICATION_TYPE":"U","NORAD_CAT_ID":55497,"ELEMENT_SET_NO":999,"REV_AT_EPOCH":577,"BSTAR":0.0035883023,"MEAN_MOTION_DOT":0.00055361,"MEAN_MOTION_DDOT":0},{"OBJECT_NAME":"CZ-2C DEB","OBJECT_ID":"2011-039F","EPOCH":"2026-03-09T17:45:14.166720","MEAN_MOTION":15.09482172,"ECCENTRICITY":0.00342492,"INCLINATION":97.9174,"RA_OF_ASC_NODE":359.6762,"ARG_OF_PERICENTER":347.2377,"MEAN_ANOMALY":72.5812,"EPHEMERIS_TYPE":0,"CLASSIFICATION_TYPE":"U","NORAD_CAT_ID":37770,"ELEMENT_SET_NO":999,"REV_AT_EPOCH":77853,"BSTAR":0.0024394871,"MEAN_MOTION_DOT":0.00039734,"MEAN_MOTION_DDOT":0}]
